COSMOS 2251 DEB         
1 34299U 93036MV  24153.36611934  .00011217  00000+0  14149-2 0  9998
2 34299  74.0189  40.0575 0158514 272.0566  86.2461 14.73478353806052
COSMOS 2251 DEB         
1 34300U 93036MW  24153.46698833  .00023444  00000+0  33746-2 0  9994
2 34300  74.0129  78.8745 0090190 316.4275  42.9797 14.73499931804955
COSMOS 2251 DEB         
1 34301U 93036MX  24153.48808286  .00006987  00000+0  15758-2 0  9998
2 34301  74.0181 173.4388 0027759 356.8400 153.2783 14.56258032801806
COSMOS 2251 DEB         
1 34302U 93036MY  24153.20804677  .00002608  00000+0  90380-3 0  9990
2 34302  74.1830  63.5739 0082701  77.8051  73.6019 14.34187802796833
COSMOS 2251 DEB         
1 34303U 93036MZ  24153.46219750  .00010433  00000+0  26532-2 0  9993
2 34303  74.0104 259.6459 0162648 172.6884 266.7906 14.43087307798595
COSMOS 2251 DEB         
1 34304U 93036NA  24153.49088145  .00004929  00000+0  17052-2 0  9999
2 34304  74.0180  68.5089 0141091 337.8054 133.8803 14.30520420792777
COSMOS 2251 DEB         
1 34307U 93036ND  24153.39533097  .00001149  00000+0  10732-2 0  9991
2 34307  74.0530 129.4189 0396756  81.3532  40.4275 13.52504752752943
COSMOS 2251 DEB         
1 34313U 93036NK  24152.95020370  .00009990  00000+0  17030-2 0  9994
2 34313  73.9972 348.5382 0036617 260.6613  99.0416 14.68653351807290
COSMOS 2251 DEB         
1 34314U 93036NL  24153.61447737  .00001585  00000+0  78567-3 0  9994
2 34314  74.0065 224.4953 0107173  98.4544  25.0040 14.15046212787415
COSMOS 2251 DEB         
1 34316U 93036NN  24153.56356947  .00009494  00000+0  16937-2 0  9991
2 34316  74.0755 355.4964 0014152 227.3083 132.6896 14.67024368809396
COSMOS 2251 DEB         
1 34317U 93036NP  24153.24467341  .00000319  00000+0  29273-3 0  9993
2 34317  73.9243 235.8459 0341527 331.4906  55.9679 13.63628020759881
COSMOS 2251 DEB         
1 34319U 93036NR  24153.48170571  .01377287  00000+0  14681-1 0  9994
2 34319  73.9844 313.9583 0007114 287.0147  73.0292 15.61130942809496
COSMOS 2251 DEB         
1 34321U 93036NT  24153.30306895  .00002721  00000+0  77439-3 0  9997
2 34321  74.0294 124.2431 0014930  22.8624  45.5887 14.45723416803880
COSMOS 2251 DEB         
1 34323U 93036NV  24153.26655265  .00008511  00000+0  19088-2 0  9990
2 34323  73.9617 124.3843 0092453 297.9626 175.4893 14.54082234802470
COSMOS 2251 DEB         
1 34325U 93036NX  24153.55000296  .00001286  00000+0  75278-3 0  9998
2 34325  73.8720  94.4206 0209836 217.5831 259.7124 13.98923405776774
COSMOS 2251 DEB         
1 34327U 93036NZ  24153.59185593  .00006837  00000+0  11037-2 0  9997
2 34327  74.0026 196.6064 0040779 154.8092 326.2499 14.71018231812585
COSMOS 2251 DEB         
1 34330U 93036PC  24153.60292713  .00033083  00000+0  38095-2 0  9992
2 34330  74.0264 315.4426 0008735 141.7020 298.0835 14.85548583809521
COSMOS 2251 DEB         
1 34331U 93036PD  24153.12688427  .00045611  00000+0  46227-2 0  9997
2 34331  74.0190  46.8263 0035955 140.4898 219.8915 14.90193574806391
COSMOS 2251 DEB         
1 34340U 93036PN  24153.48091186  .00001624  00000+0  12148-2 0  9997
2 34340  74.0774 160.3608 0294927  37.6410  85.2428 13.76764587765622
COSMOS 2251 DEB         
1 34342U 93036PQ  24153.61211439  .00013437  00000+0  13606-2 0  9994
2 34342  74.1676 207.2074 0076063 325.9078 158.2428 14.88809776816437
COSMOS 2251 DEB         
1 34343U 93036PR  24153.29938515  .00006815  00000+0  15689-2 0  9995
2 34343  74.0261  83.0526 0027507 149.0466 333.1574 14.55316470805492
COSMOS 2251 DEB         
1 34344U 93036PS  24153.63956147  .00002887  00000+0  14684-2 0  9994
2 34344  73.9847  23.5055 0159673 330.3171  58.9919 14.09926013781975
COSMOS 2251 DEB         
1 34346U 93036PU  24153.17189437  .00002086  00000+0  12696-2 0  9997
2 34346  73.9968 200.4951 0215713 141.1230 278.5771 13.95846257775901
COSMOS 2251 DEB         
1 34383U 93036PY  24153.53680741  .00008449  00000+0  14299-2 0  9992
2 34383  74.0338 332.5360 0010081 210.3151 213.8383 14.69421727808000
COSMOS 2251 DEB         
1 34386U 93036QB  24153.61768903  .00023829  00000+0  31150-2 0  9995
2 34386  74.0201   8.6772 0015156 171.4788 258.6461 14.80291990806519
COSMOS 2251 DEB         
1 34387U 93036QC  24153.51416419  .00001269  00000+0  39687-3 0  9995
2 34387  74.0398 169.5312 0038592  43.4225  81.1738 14.41320205801168
COSMOS 2251 DEB         
1 34388U 93036QD  24153.52873462  .00002449  00000+0  72794-3 0  9999
2 34388  74.0410 187.7207 0015732   5.2959 117.1103 14.43669299800672
COSMOS 2251 DEB         
1 34389U 93036QE  24153.61873567  .00001153  00000+0  38208-3 0  9999
2 34389  74.0192 204.5770 0028857  92.0655  33.5500 14.38759022799624
COSMOS 2251 DEB         
1 34390U 93036QF  24153.54354119  .00016951  00000+0  24020-2 0  9998
2 34390  74.0841 314.2103 0056036  91.7119 331.0089 14.75927979809222
COSMOS 2251 DEB         
1 34396U 93036QM  24151.06507222  .00007222  00000+0  16559-2 0  9993
2 34396  74.0369 125.4815 0016793 301.7787 134.6359 14.55638010801183
