OBJECT_NAME,OBJECT_ID,EPOCH,MEAN_MOTION,ECCENTRICITY,INCLINATION,RA_OF_ASC_NODE,ARG_OF_PERICENTER,MEAN_ANOMALY,EPHEMERIS_TYPE,CLASSIFICATION_TYPE,NORAD_CAT_ID,ELEMENT_SET_NO,REV_AT_EPOCH,BSTAR,MEAN_MOTION_DOT,MEAN_MOTION_DDOT
COSMOS 2251 DEB,1993-036MV,2024-06-01T08:47:12.710976,14.73478353,0.0158514,74.0189,40.0575,272.0566,86.2461,0,U,34299,999,80605,0.0014149,0.00011217,0
COSMOS 2251 DEB,1993-036MW,2024-06-01T11:12:27.791712,14.73499931,0.009019,74.0129,78.8745,316.4275,42.9797,0,U,34300,999,80495,0.0033746,0.00023444,0
COSMOS 2251 DEB,1993-036MX,2024-06-01T11:42:50.359104,14.56258032,0.0027759,74.0181,173.4388,356.84,153.2783,0,U,34301,999,80180,0.0015758,6.987e-05,0
COSMOS 2251 DEB,1993-036MY,2024-06-01T04:59:35.240928,14.34187802,0.0082701,74.183,63.5739,77.8051,73.6019,0,U,34302,999,79683,0.0009038,2.608e-05,0
COSMOS 2251 DEB,1993-036MZ,2024-06-01T11:05:33.864000,14.43087307,0.0162648,74.0104,259.6459,172.6884,266.7906,0,U,34303,999,79859,0.0026532,0.00010433,0
COSMOS 2251 DEB,1993-036NA,2024-06-01T11:46:52.157280,14.3052042,0.0141091,74.018,68.5089,337.8054,133.8803,0,U,34304,999,79277,0.0017052,4.929e-05,0
COSMOS 2251 DEB,1993-036ND,2024-06-01T09:29:16.595808,13.52504752,0.0396756,74.053,129.4189,81.3532,40.4275,0,U,34307,999,75294,0.0010732,1.149e-05,0
COSMOS 2251 DEB,1993-036NK,2024-05-31T22:48:17.599680,14.68653351,0.0036617,73.9972,348.5382,260.6613,99.0416,0,U,34313,999,80729,0.001703,9.99e-05,0
COSMOS 2251 DEB,1993-036NL,2024-06-01T14:44:50.844768,14.15046212,0.0107173,74.0065,224.4953,98.4544,25.004,0,U,34314,999,78741,0.00078567,1.585e-05,0
COSMOS 2251 DEB,1993-036NN,2024-06-01T13:31:32.402208,14.67024368,0.0014152,74.0755,355.4964,227.3083,132.6896,0,U,34316,999,80939,0.0016937,9.494e-05,0
COSMOS 2251 DEB,1993-036NP,2024-06-01T05:52:19.782624,13.6362802,0.0341527,73.9243,235.8459,331.4906,55.9679,0,U,34317,999,75988,0.00029273,3.19e-06,0
COSMOS 2251 DEB,1993-036NR,2024-06-01T11:33:39.373344,15.61130942,0.0007114,73.9844,313.9583,287.0147,73.0292,0,U,34319,999,80949,0.014681,0.01377287,0
COSMOS 2251 DEB,1993-036NT,2024-06-01T07:16:25.157280,14.45723416,0.001493,74.0294,124.2431,22.8624,45.5887,0,U,34321,999,80388,0.00077439,2.721e-05,0
COSMOS 2251 DEB,1993-036NV,2024-06-01T06:23:50.148960,14.54082234,0.0092453,73.9617,124.3843,297.9626,175.4893,0,U,34323,999,80247,0.0019088,8.511e-05,0
COSMOS 2251 DEB,1993-036NX,2024-06-01T13:12:00.255744,13.98923405,0.0209836,73.872,94.4206,217.5831,259.7124,0,U,34325,999,77677,0.00075278,1.286e-05,0
COSMOS 2251 DEB,1993-036NZ,2024-06-01T14:12:16.352352,14.71018231,0.0040779,74.0026,196.6064,154.8092,326.2499,0,U,34327,999,81258,0.0011037,6.837e-05,0
COSMOS 2251 DEB,1993-036PC,2024-06-01T14:28:12.904032,14.85548583,0.0008735,74.0264,315.4426,141.702,298.0835,0,U,34330,999,80952,0.0038095,0.00033083,0
COSMOS 2251 DEB,1993-036PD,2024-06-01T03:02:42.800928,14.90193574,0.0035955,74.019,46.8263,140.4898,219.8915,0,U,34331,999,80639,0.0046227,0.00045611,0
COSMOS 2251 DEB,1993-036PN,2024-06-01T11:32:30.784704,13.76764587,0.0294927,74.0774,160.3608,37.641,85.2428,0,U,34340,999,76562,0.0012148,1.624e-05,0
COSMOS 2251 DEB,1993-036PQ,2024-06-01T14:41:26.683296,14.88809776,0.0076063,74.1676,207.2074,325.9078,158.2428,0,U,34342,999,81643,0.0013606,0.00013437,0
COSMOS 2251 DEB,1993-036PR,2024-06-01T07:11:06.876960,14.5531647,0.0027507,74.0261,83.0526,149.0466,333.1574,0,U,34343,999,80549,0.0015689,6.815e-05,0
COSMOS 2251 DEB,1993-036PS,2024-06-01T15:20:58.111008,14.09926013,0.0159673,73.9847,23.5055,330.3171,58.9919,0,U,34344,999,78197,0.0014684,2.887e-05,0
COSMOS 2251 DEB,1993-036PU,2024-06-01T04:07:31.673568,13.95846257,0.0215713,73.9968,200.4951,141.123,278.5771,0,U,34346,999,77590,0.0012696,2.086e-05,0
COSMOS 2251 DEB,1993-036PY,2024-06-01T12:53:00.160224,14.69421727,0.0010081,74.0338,332.536,210.3151,213.8383,0,U,34383,999,80800,0.0014299,8.449e-05,0
COSMOS 2251 DEB,1993-036QB,2024-06-01T14:49:28.332192,14.8029199,0.0015156,74.0201,8.6772,171.4788,258.6461,0,U,34386,999,80651,0.003115,0.00023829,0
COSMOS 2251 DEB,1993-036QC,2024-06-01T12:20:23.786016,14.41320205,0.0038592,74.0398,169.5312,43.4225,81.1738,0,U,34387,999,80116,0.00039687,1.269e-05,0
COSMOS 2251 DEB,1993-036QD,2024-06-01T12:41:22.671168,14.43669299,0.0015732,74.041,187.7207,5.2959,117.1103,0,U,34388,999,80067,0.00072794,2.449e-05,0
COSMOS 2251 DEB,1993-036QE,2024-06-01T14:50:58.761888,14.38759022,0.0028857,74.0192,204.577,92.0655,33.55,0,U,34389,999,79962,0.00038208,1.153e-05,0
COSMOS 2251 DEB,1993-036QF,2024-06-01T13:02:41.958816,14.75927979,0.0056036,74.0841,314.2103,91.7119,331.0089,0,U,34390,999,80922,0.002402,0.00016951,0
COSMOS 2251 DEB,1993-036QM,2024-05-30T01:33:42.239808,14.5563801,0.0016793,74.0369,125.4815,301.7787,134.6359,0,U,34396,999,80118,0.0016559,7.222e-05,0
